     2.100          NAVIGATION                              RINEX VERSION / TYPE
fic2rin                                 07/11/2010 00:04:04 PGM / RUN BY / DATE
                                                            END OF HEADER
30 10  7 10  4  0  0.0  .259210355580D-03  .329691829393D-11  .000000000000D+00
     .690000000000D+02 -.118437500000D+03  .430196490839D-08  .553324654593D-01
    -.643171370029D-05  .124318619492D-01  .107046216726D-04  .515372294235D+04
     .532800000000D+06 -.236555933952D-06  .275966806449D+01  .260770320892D-07
     .956976169464D+00  .173906250000D+03  .148945589891D+01 -.805533553706D-08
     .222866426138D-09  .100000000000D+01  .159100000000D+04  .000000000000D+00
     .340000000000D+01  .000000000000D+00 -.791624188423D-08  .690000000000D+02
     .525606000000D+06  .400000000000D+01
31 10  7 10  4  0  0.0 -.255396589637D-04  .250111042988D-11  .000000000000D+00
     .180000000000D+02 -.951562500000D+02  .416195907659D-08  .242891565637D+01
    -.478513538837D-05  .734171923250D-02  .486150383949D-06  .515372201538D+04
     .532800000000D+06  .130385160446D-07  .175959538171D+01  .782310962677D-07
     .977023268827D+00  .378656250000D+03 -.105002442729D+01 -.811819529828D-08
    -.201794119821D-09  .100000000000D+01  .159100000000D+04  .000000000000D+00
     .240000000000D+01  .000000000000D+00 -.130385160446D-07  .180000000000D+02
     .525606000000D+06  .400000000000D+01
32 10  7 10  4  0  0.0 -.344300642610D-04 -.864019966684D-11  .000000000000D+00
     .540000000000D+02  .100125000000D+03  .408517016373D-08 -.306786720731D+01
     .512227416039D-05  .126180177322D-01  .119544565678D-04  .515370178795D+04
     .532800000000D+06 -.745058059692D-08 -.252444767406D+00  .175088644028D-06
     .958911434533D+00  .144281250000D+03 -.965171585762D+00 -.746816822204D-08
    -.507163982558D-09  .100000000000D+01  .159100000000D+04  .000000000000D+00
     .240000000000D+01  .000000000000D+00 -.325962901115D-08  .540000000000D+02
     .525606000000D+06  .400000000000D+01
27 10  7 10  3 59 44.0  .168717466295D-03  .352429196937D-11  .000000000000D+00
     .840000000000D+02 -.722812500000D+02  .425089135240D-08 -.143144115999D+01
    -.314787030220D-05  .215365953045D-01  .153668224812D-05  .515360690689D+04
     .532784000000D+06 -.258907675743D-06  .170379605081D+01  .433996319771D-06
     .978497404562D+00  .361156250000D+03 -.140011027944D+01 -.835927676886D-08
    -.510735559900D-10  .100000000000D+01  .159100000000D+04  .000000000000D+00
     .240000000000D+01  .000000000000D+00 -.419095158577D-08  .840000000000D+02
     .526236000000D+06  .400000000000D+01
 8 10  7 10  3 59 44.0  .606384128332D-05  .113686837722D-12  .000000000000D+00
     .190000000000D+02 -.866875000000D+02  .384123143128D-08  .184808010023D+01
    -.449456274509D-05  .112036839128D-01  .114925205708D-05  .515367919731D+04
     .532784000000D+06 -.391155481339D-07  .182865778392D+01  .106170773506D-06
     .993200053100D+00  .376500000000D+03  .310701501361D+01 -.797211778499D-08
    -.281083136812D-09  .100000000000D+01  .159100000000D+04  .000000000000D+00
     .240000000000D+01  .000000000000D+00 -.372529029846D-08  .190000000000D+02
     .527196000000D+06  .400000000000D+01
10 10  7 10  3 59 44.0 -.466546043754D-04 -.909494701773D-12  .000000000000D+00
     .100000000000D+01  .699062500000D+02  .444732810621D-08 -.489598137819D+00
     .359117984772D-05  .918662524782D-02  .107772648335D-04  .515353426361D+04
     .532784000000D+06  .596046447754D-07 -.315902965987D+00  .167638063431D-06
     .953069252166D+00  .167187500000D+03  .666196197014D+00 -.798176104381D-08
    -.563237746827D-09  .100000000000D+01  .159100000000D+04  .000000000000D+00
     .240000000000D+01  .000000000000D+00 -.279396772385D-08  .100000000000D+01
     .530436000000D+06  .400000000000D+01
 8 10  7 10  5 59 44.0  .606477260590D-05  .113686837722D-12  .000000000000D+00
     .200000000000D+02 -.950312500000D+02  .378051461647D-08  .289820880139D+01
    -.490061938763D-05  .112025869312D-01  .867992639542D-06  .515368129158D+04
     .539984000000D+06 -.800937414169D-07  .182860029709D+01  .577419996262D-07
     .993198304913D+00  .382468750000D+03  .310705877973D+01 -.792997317236D-08
    -.246795994329D-09  .100000000000D+01  .159100000000D+04  .000000000000D+00
     .240000000000D+01  .000000000000D+00 -.372529029846D-08  .200000000000D+02
     .532806000000D+06  .400000000000D+01
10 10  7 10  5 59 44.0 -.466615892947D-04 -.909494701773D-12  .000000000000D+00
     .600000000000D+01  .656562500000D+02  .455876131928D-08  .560601709437D+00
     .373832881451D-05  .918577378616D-02  .112168490887D-04  .515353268242D+04
     .539984000000D+06 -.596046447754D-07 -.315960329930D+00  .150874257088D-06
     .953065144292D+00  .156687500000D+03  .666263694591D+00 -.797104631179D-08
    -.605025201728D-09  .100000000000D+01  .159100000000D+04  .000000000000D+00
     .240000000000D+01  .000000000000D+00 -.279396772385D-08  .600000000000D+01
     .532806000000D+06  .400000000000D+01
 1 10  7 10  6  0  0.0 -.139505602419D-03 -.409272615798D-11  .000000000000D+00
     .160000000000D+02 -.121437500000D+03  .395373611755D-08  .296989176094D+00
    -.631250441074D-05  .443818804342D-02  .109579414129D-04  .515360754204D+04
     .540000000000D+06 -.875443220139D-07  .279924167796D+01  .875443220139D-07
     .965592748174D+00  .170968750000D+03  .920821297526D+00 -.774675125471D-08
     .230009580822D-09  .100000000000D+01  .159100000000D+04  .000000000000D+00
     .240000000000D+01  .630000000000D+02 -.190921127796D-07  .160000000000D+02
     .532806000000D+06  .400000000000D+01
 2 10  7 10  6  0  0.0  .271603465080D-03  .306954461848D-11  .000000000000D+00
     .530000000000D+02 -.208750000000D+02  .562451999812D-08 -.115377942265D+01
    -.105053186417D-05  .961477996316D-02  .549107789993D-05  .515359351540D+04
     .540000000000D+06  .670552253723D-07 -.140156956509D+01 -.100582838058D-06
     .939241592485D+00  .261906250000D+03  .310380236066D+01 -.847142429740D-08
    -.195365280605D-09  .100000000000D+01  .159100000000D+04  .000000000000D+00
     .240000000000D+01  .000000000000D+00 -.172294676304D-07  .530000000000D+02
     .532806000000D+06  .400000000000D+01
 3 10  7 10  6  0  0.0  .579534098506D-03  .500222085975D-11  .000000000000D+00
     .160000000000D+02  .718750000000D+01  .541629703908D-08 -.124304970331D+01
     .655651092529D-06  .133028285345D-01  .844150781631D-05  .515371138954D+04
     .540000000000D+06  .284984707832D-06 -.255487719374D+01  .242143869400D-06
     .927543918122D+00  .195000000000D+03  .100715838355D+01 -.826177270742D-08
     .754317134622D-09  .100000000000D+01  .159100000000D+04  .000000000000D+00
     .240000000000D+01  .000000000000D+00 -.465661287308D-08  .160000000000D+02
     .532806000000D+06  .400000000000D+01
 4 10  7 10  6  0  0.0  .121702905744D-03  .807176547823D-11  .000000000000D+00
     .140000000000D+02 -.162812500000D+02  .564844956631D-08  .192837640398D+01
    -.821426510811D-06  .909964507446D-02  .597350299358D-05  .515370338058D+04
     .540000000000D+06 -.277534127235D-06 -.138375595250D+01  .260770320892D-07
     .938378141662D+00  .256843750000D+03  .615427575143D+00 -.841356474446D-08
    -.341085636157D-09  .100000000000D+01  .159100000000D+04  .000000000000D+00
     .240000000000D+01  .000000000000D+00 -.605359673500D-08  .140000000000D+02
     .532806000000D+06  .400000000000D+01
 5 10  7 10  6  0  0.0 -.129733234644D-04 -.306954461848D-11  .000000000000D+00
     .710000000000D+02  .573750000000D+02  .441946980294D-08  .484071503955D+00
     .306591391563D-05  .181095395237D-02  .112410634756D-04  .515374259186D+04
     .540000000000D+06  .558793544769D-08 -.341470822670D+00  .186264514923D-07
     .958034972516D+00  .156781250000D+03  .233982618361D+00 -.781139680460D-08
    -.567523639638D-09  .100000000000D+01  .159100000000D+04  .000000000000D+00
     .240000000000D+01  .000000000000D+00 -.884756445885D-08  .710000000000D+02
     .532806000000D+06  .400000000000D+01
 6 10  7 10  6  0  0.0  .578404869884D-03 -.139834810398D-10  .000000000000D+00
     .600000000000D+01  .384375000000D+01  .535308012013D-08  .963170644449D+00
     .163912773132D-06  .629846192896D-02  .825151801109D-05  .515365001488D+04
     .540000000000D+06  .428408384323D-07 -.248392602384D+01 -.126659870148D-06
     .934792494340D+00  .207125000000D+03 -.101795704940D+01 -.827748764773D-08
     .727530304557D-09  .100000000000D+01  .159100000000D+04  .000000000000D+00
     .240000000000D+01  .000000000000D+00 -.512227416039D-08  .600000000000D+01
     .532806000000D+06  .400000000000D+01
 7 10  7 10  6  0  0.0 -.165263190866D-05 -.113686837722D-12  .000000000000D+00
     .110000000000D+02 -.788750000000D+02  .433446626220D-08 -.274467275772D+01
    -.402331352234D-05  .373468641192D-02  .245869159698D-06  .515370724106D+04
     .540000000000D+06 -.242143869400D-07  .175975106984D+01  .521540641785D-07
     .971780618083D+00  .382156250000D+03  .303582048730D+01 -.831820362943D-08
    -.159292349451D-09  .100000000000D+01  .159100000000D+04  .000000000000D+00
     .240000000000D+01  .000000000000D+00 -.102445483208D-07  .110000000000D+02
     .532806000000D+06  .400000000000D+01
 9 10  7 10  6  0  0.0  .174054875970D-04  .227373675443D-11  .000000000000D+00
     .101000000000D+03 -.724062500000D+02  .396230790317D-08  .277655803449D+01
    -.366568565369D-05  .171700794017D-01  .255182385445D-06  .515371391869D+04
     .540000000000D+06  .173225998878D-06  .172885361973D+01 -.614672899246D-07
     .980850252281D+00  .383531250000D+03  .153152444310D+01 -.786497046473D-08
    -.205722854897D-09  .100000000000D+01  .159100000000D+04  .000000000000D+00
     .340000000000D+01  .000000000000D+00 -.558793544769D-08  .101000000000D+03
     .532806000000D+06  .400000000000D+01
